[{"OBJECT_NAME":"STARLINK-1828","OBJECT_ID":"2020-073BH","EPOCH":"2026-03-09T17:33:50.808384","MEAN_MOTION":15.53474496,"ECCENTRICITY":0.00015775,"INCLINATION":53.0554,"RA_OF_ASC_NODE":236.2202,"ARG_OF_PERICENTER":58.8994,"MEAN_ANOMALY":301.217,"EPHEMERIS_TYPE":0,"CLASSIFICATION_TYPE":"U","NORAD_CAT_ID":46725,"ELEMENT_SET_NO":999,"REV_AT_EPOCH":29721,"BSTAR":0.00076646935,"MEAN_MOTION_DOT":0.00049315,"MEAN_MOTION_DDOT":0},{"OBJECT_NAME":"FIREFLY ALPHA R\/B","OBJECT_ID":"2024-125H","EPOCH":"2026-03-09T22:20:21.817248","MEAN_MOTION":15.57788305,"ECCENTRICITY":0.00251129,"INCLINATION":97.2295,"RA_OF_ASC_NODE":290.9164,"ARG_OF_PERICENTER":188.9854,"MEAN_ANOMALY":171.0957,"EPHEMERIS_TYPE":0,"CLASSIFICATION_TYPE":"U","NORAD_CAT_ID":60210,"ELEMENT_SET_NO":999,"REV_AT_EPOCH":9448,"BSTAR":0.0005026464,"MEAN_MOTION_DOT":0.00037909,"MEAN_MOTION_DDOT":0}]
